TIANHUI 2-01B           
1 44209U 19024A   21199.67294042  .00000333  00000-0  20313-4 0  9993
2 44209  97.4533 204.4713 0001714  93.1051  19.8427 15.16760168122888
AFOTEC-1 (FALCON ODE)   
1 44225U 19026A   21199.41939784  .00000937  00000-0  48067-4 0  9990
2 44225  40.0173 200.0898 0005142  93.2585 266.8804 15.21988429122542
SPARC-1                 
1 44226U 19026B   21199.23232195  .00001684  00000-0  75321-4 0  9996
2 44226  40.0164 190.5631 0009839 100.0886 260.1027 15.24127170122702
HARBINGER (ICEYE-X3)    
1 44229U 19026E   21199.30386326  .00000443  00000-0  26818-4 0  9992
2 44229  40.0177 199.1971 0006544  86.4570 273.6979 15.22103955122548
BEIDOU-2 G8             
1 44231U 19027A   21199.59565323 -.00000246  00000-0  00000-0 0  9996
2 44231   0.2556   3.9505 0006102 183.5889 108.0693  1.00271121  8074
RISAT-2B                
1 44233U 19028A   21199.30431279  .00000124  00000-0  16830-4 0  9996
2 44233  36.9982 162.0369 0007457 269.4802  90.5084 14.98118784118441
STARLINK-61             
1 44249U 19029Q   21199.33252663  .00001386  00000-0  74611-4 0  9997
2 44249  52.9860 180.8385 0004704 142.3631 217.7694 15.21818172118432
STARLINK-71             
1 44252U 19029T   21199.50369000  .00004355  00000-0  22487-3 0  9996
2 44252  52.9979 207.9057 0001577  22.9001 337.2063 15.18302874118018
STARLINK-43             
1 44257U 19029Y   21199.19614011  .00020236  00000-0  42749-3 0  9990
2 44257  52.9989  93.1344 0002544  80.2615 279.8677 15.45183584119772
STARLINK-70             
1 44281U 19029AY  21199.19077410  .00053310  00000-0  60662-3 0  9996
2 44281  52.9940 120.8174 0003998  71.1379 289.0066 15.61775833 51373
STARLINK-76             
1 44287U 19029BE  21199.08823585  .00063845  00000-0  65155-3 0  9998
2 44287  52.9908 109.2537 0002899  69.5210 290.6115 15.64490534119677
COSMOS 2534 [GLONASS-M] 
1 44299U 19030A   21199.18860872  .00000054  00000-0  00000-0 0  9992
2 44299  64.5078 253.4525 0013616 282.8300 152.9101  2.13102142 16682
YAMAL 601               
1 44307U 19031A   21199.04146554  .00000121  00000-0  00000-0 0  9997
2 44307   0.0174  33.6423 0002056  62.2237 264.1687  1.00275141  7932
2019-032A               
1 44310U 19032A   21199.45594889 -.00000031  00000-0  15809-4 0  9993
2 44310  44.9835 214.4308 0013773 288.7524  71.1850 14.99264653116184
2019-032B               
1 44311U 19032B   21199.40166852  .00000006  00000-0  18317-4 0  9992
2 44311  44.9768 204.6563 0015745 284.0387  75.8731 15.00850121116296
2019-032C               
1 44312U 19032C   21199.42105892 -.00000025  00000-0  15894-4 0  9991
2 44312  44.9847 203.7625 0015877 281.8866  78.0222 15.01080047116313
2019-032D               
1 44313U 19032D   21199.43041262  .00000063  00000-0  22647-4 0  9998
2 44313  44.9978 204.6811 0016023 280.9931  78.9136 15.01119446116312
2019-032E               
1 44314U 19032E   21199.41984663 -.00000030  00000-0  15559-4 0  9997
2 44314  44.9852 203.7358 0016993 282.9464  76.9506 15.01093658116314
2019-032F               
1 44315U 19032F   21199.41323911  .00000044  00000-0  21052-4 0  9990
2 44315  44.9825 200.2345 0019079 289.6897  70.1917 15.01677530116347
2019-032G               
1 44316U 19032G   21199.44238971 -.00000032  00000-0  15858-4 0  9990
2 44316  44.9839 214.3698 0018381 277.6045  82.2740 14.99276135116167
RCM-1                   
1 44322U 19033A   21199.56446947 -.00000512  00000-0 -44401-4 0  9995
2 44322  97.7594 206.6546 0001598  77.4767 282.6645 14.92582764114386
RCM-3                   
1 44323U 19033B   21199.45299490  .00000174  00000-0  22383-4 0  9990
2 44323  97.7591 206.6399 0001585  84.2125 275.9294 14.92589210114388
RCM-2                   
1 44324U 19033C   21199.47520768 -.00000132  00000-0 -74171-5 0  9997
2 44324  97.7594 206.6154 0001610  75.7459 284.3900 14.92588448114374
RAAVANA-1               
1 44329U 98067QE  21199.03945457  .00060754  00000-0  30264-3 0  9991
2 44329  51.6335 126.7500 0004546  69.5965 290.5525 15.81287657118993
UGUISU                  
1 44330U 98067QF  21199.17672034  .00052895  00000-0  27348-3 0  9992
2 44330  51.6290 126.8052 0004617  66.8116 293.3371 15.80534222118986
NEPALISAT-1             
1 44331U 98067QG  21199.10071606  .00056557  00000-0  28380-3 0  9990
2 44331  51.6306 126.3039 0004487  69.0488 291.0994 15.81158701118999
SPOOQY-1                
1 44332U 98067QH  21199.07870697  .00053900  00000-0  28781-3 0  9998
2 44332  51.6319 127.7101 0004486  72.1686 287.9804 15.79820156118938
AT&T T-16               
1 44333U 19034A   21199.34493837 -.00000113  00000-0  00000-0 0  9993
2 44333   0.0307 278.7685 0000888  49.7068 351.2151  1.00272604  7647
EUTELSAT 7C             
1 44334U 19034B   21199.35290719  .00000050  00000-0  00000-0 0  9998
2 44334   0.0381 231.0374 0003396 229.0524 330.3431  1.00270604  8103
BEIDOU-3 IGSO-2         
1 44337U 19035A   21199.15323102 -.00000064  00000-0  00000-0 0  9999
2 44337  55.0964 174.7199 0020097 194.3253  89.9771  1.00272618  7695
PROX-1                  
1 44339U 19036A   21199.19160237  .00000840  00000-0  14732-3 0  9995
2 44339  23.9997 140.6059 0011584 156.0586 204.0446 14.53636456109653
NPSAT1                  
1 44340U 19036B   21199.25457634  .00000624  00000-0  98217-4 0  9995
2 44340  24.0003 142.1367 0011601 147.5990 212.5215 14.53015527109678
OTB                     
1 44341U 19036C   21199.22223275  .00000244  00000-0  76964-5 0  9999
2 44341  23.9973 141.7609 0012001 149.3138 210.8056 14.52903664109756
FORMOSAT 7-3            
1 44343U 19036E   21199.54229970  .00000776  00000-0  27574-4 0  9996
2 44343  24.0001 278.5791 0010338 338.6257  21.3814 15.07838008111816
DSX                     
1 44344U 19036F   21195.47802639 -.00000021  00000-0  00000-0 0  9999
2 44344  42.2655 289.1824 1968743 322.4618  25.3409  4.54370881 34047
OCULUS-ASR              
1 44348U 19036K   21199.55262432  .00013987  00000-0  18545-3 0  9997
2 44348  28.5146 286.8247 0326115 243.7330 112.9405 15.13091369113621
FORMOSAT 7-1            
1 44349U 19036L   21199.01300004  .00000847  00000-0  32014-4 0  9996
2 44349  24.0000  98.2323 0012026   8.9079 351.1637 15.07831923113520
FORMOSAT 7-4            
1 44350U 19036M   21199.10111401  .00000832  00000-0  31288-4 0  9995
2 44350  23.9985 159.7248 0006240  58.0910 302.0200 15.07834644112929
FORMOSAT 7-2            
1 44351U 19036N   21199.25565335  .00000757  00000-0  26224-4 0  9991
2 44351  23.9979 213.0253 0015016  91.1890 269.0333 15.07829152112465
ARMADILLO               
1 44352U 19036P   21199.49828029  .00018490  00000-0  22729-3 0  9998
2 44352  28.5299 263.5409 0293301 279.7736  76.9860 15.21234105113806
FORMOSAT 7-6            
1 44353U 19036Q   21198.79275047  .00000860  00000-0  33225-4 0  9993
2 44353  24.0008  36.9940 0002984  99.1369 260.9472 15.07829753110667
PSAT2 (NO-104)          
1 44354U 19036R   21199.54958854  .00013892  00000-0  17949-3 0  9995
2 44354  28.5304 279.5740 0320967 253.4028 103.1089 15.14641586113692
BRICSAT2 (NO-103)       
1 44355U 19036S   21199.43407670  .00032763 -59889-5  33000-3 0  9998
2 44355  28.5270 230.0219 0253794 334.2450  24.5701 15.32194747114182
2019-036U               
1 44357U 19036U   21199.56058057  .00013403  00000-0  16963-3 0  9999
2 44357  28.5280 277.4505 0321558 257.0739  99.3759 15.14934308113710
FORMOSAT 7-5            
1 44358U 19036V   21199.49850085  .00000851  00000-0  32507-4 0  9999
2 44358  24.0008 331.9028 0006376 250.7702 109.2111 15.07833184111256
CP9 (LEO)               
1 44360U 19036X   21199.10334104  .00081732 -46013-5  47104-3 0  9994
2 44360  28.4999 158.2991 0163909  93.0341 268.9032 15.60397098114737
2019-036Y               
1 44361U 19036Y   21198.98341122  .00075051 -48336-5  45271-3 0  9998
2 44361  28.5069 163.4550 0173272  84.2388 277.7943 15.57869978114683
RED-EYE 1 (PINOT)       
1 44364U 98067QJ  21199.24798268  .00005589  00000-0  74366-4 0  9996
2 44364  51.6381 159.1402 0006434   7.5499 352.5590 15.59873997116998
PAINANI 1               
1 44365U 19037A   21199.11356301  .00003172  00000-0  82043-4 0  9998
2 44365  45.0053  86.8725 0004121  18.6326 341.4713 15.41541899115503
PROMETHEUS 2-9          
1 44366U 19037B   21199.05026940  .00007719  00000-0  16034-3 0  9992
2 44366  45.0090  74.0680 0003631  21.3380 338.7661 15.46283484115655
GLOBAL-3                
1 44367U 19037C   21199.07367700  .00002463  00000-0  66704-4 0  9998
2 44367  45.0078  84.9874 0007666 355.4563   4.6254 15.40991152115528
ELECTRON KICK STAGE R/B 
1 44368U 19037D   21198.95954733  .00011284  00000-0  19945-3 0  9998
2 44368  45.0048  59.6174 0005969  30.1341 329.9893 15.50503640115819
ACRUX 1                 
1 44369U 19037E   21198.79234321  .00007302  00000-0  14332-3 0  9996
2 44369  45.0061  64.3813 0008577   6.6440 353.4563 15.48003966115699
SPACEBEE-9              
1 44370U 19037F   21198.94865196  .00027118  00000-0  34270-3 0  9995
2 44370  44.9994  44.2689 0001613 352.6718   7.4154 15.59097484115948
PROMETHEUS 2-7          
1 44374U 19037K   21198.53744519  .00007791  00000-0  15868-3 0  9996
2 44374  45.0070  75.2805 0003515  20.6226 339.4805 15.46848592115415
PROMETHEUS 2-6          
1 44386U 19036AB  21199.42553605  .00044920 -57158-5  41253-3 0  9995
2 44386  28.5340 214.9521 0235298 358.0589   1.9088 15.37930514113043
METEOR-M2 2             
1 44387U 19038A   21199.53575702 -.00000037  00000-0  28246-5 0  9991
2 44387  98.6721 158.9366 0001838 123.3935 236.7411 14.23689372105897
2019-038B               
1 44388U 19038B   21199.38118824  .00002444  00000-0  20687-3 0  9995
2 44388  97.7690 164.0968 0018677 273.8403  86.0684 14.98839910111329
ICEYE-X5                
1 44389U 19038C   21199.54497695  .00000224  00000-0  24586-4 0  9997
2 44389  97.7815 164.1936 0018858 268.6558  91.2488 14.97106672111319
